$$SOE
2460721.500000000, A.D. 2025-Feb-15 00:00:00.0000, -8.519931930230249E+07, -3.677416225376604E+08, -1.060587455376872E+07,
2460728.500000000, A.D. 2025-Feb-22 00:00:00.0000, -7.463512602504763E+07, -3.713558520177796E+08, -1.025770491219963E+07,
2460735.500000000, A.D. 2025-Mar-01 00:00:00.0000, -6.400432153124931E+07, -3.746388110646673E+08, -9.900382209102750E+06,
2460742.500000000, A.D. 2025-Mar-08 00:00:00.0000, -5.331696091345207E+07, -3.775909213368537E+08, -9.534314155411392E+06,
2460749.500000000, A.D. 2025-Mar-15 00:00:00.0000, -4.258294553469014E+07, -3.802128664011224E+08, -9.159907580382556E+06,
2460756.500000000, A.D. 2025-Mar-22 00:00:00.0000, -3.181202235207967E+07, -3.825055799308317E+08, -8.777567848421991E+06,
2460763.500000000, A.D. 2025-Mar-29 00:00:00.0000, -2.101378243366653E+07, -3.844702365251802E+08, -8.387698614471257E+06,
2460770.500000000, A.D. 2025-Apr-05 00:00:00.0000, -1.019765829874664E+07, -3.861082420236948E+08, -7.990701690131336E+06,
2460777.500000000, A.D. 2025-Apr-12 00:00:00.0000, 6.270780343585520E+05, -3.874212232207067E+08, -7.586976834071606E+06,
2460784.500000000, A.D. 2025-Apr-19 00:00:00.0000, 1.145131614610145E+07, -3.884110178664072E+08, -7.176921520278513E+06,
2460791.500000000, A.D. 2025-Apr-26 00:00:00.0000, 2.226610776897486E+07, -3.890796651602443E+08, -6.760930724370450E+06,
2460798.500000000, A.D. 2025-May-03 00:00:00.0000, 3.306266694603673E+07, -3.894293967178184E+08, -6.339396735582858E+06,
2460805.500000000, A.D. 2025-May-10 00:00:00.0000, 4.383236985747231E+07, -3.894626280009022E+08, -5.912708995118707E+06,
2460812.500000000, A.D. 2025-May-17 00:00:00.0000, 5.456675438389768E+07, -3.891819502484351E+08, -5.481253966288269E+06,
2460819.500000000, A.D. 2025-May-24 00:00:00.0000, 6.525751960964918E+07, -3.885901229577520E+08, -5.045415055403918E+06,
2460826.500000000, A.D. 2025-May-31 00:00:00.0000, 7.589652571154919E+07, -3.876900665970039E+08, -4.605572594948590E+06,
2460833.500000000, A.D. 2025-Jun-07 00:00:00.0000, 8.647579386001849E+07, -3.864848543342369E+08, -4.162103752693892E+06,
2460840.500000000, A.D. 2025-Jun-14 00:00:00.0000, 9.698750379590467E+07, -3.849777034405782E+08, -3.715382203618973E+06,
2460847.500000000, A.D. 2025-Jun-21 00:00:00.0000, 1.074239903266647E+08, -3.831719696313471E+08, -3.265777942922443E+06,
2460854.500000000, A.D. 2025-Jun-28 00:00:00.0000, 1.177777418940761E+08, -3.810711425759001E+08, -2.813657381899327E+06,
2460861.500000000, A.D. 2025-Jul-05 00:00:00.0000, 1.280413997162343E+08, -3.786788404150651E+08, -2.359383410028398E+06,
2460868.500000000, A.D. 2025-Jul-12 00:00:00.0000, 1.382077563293939E+08, -3.759988040830128E+08, -1.903315378479481E+06,
2460875.500000000, A.D. 2025-Jul-19 00:00:00.0000, 1.482697537352096E+08, -3.730348919970825E+08, -1.445809068218082E+06,
2460882.500000000, A.D. 2025-Jul-26 00:00:00.0000, 1.582204813794664E+08, -3.697910751596293E+08, -9.872166655439138E+05,
2460889.500000000, A.D. 2025-Aug-02 00:00:00.0000, 1.680531740436918E+08, -3.662714326379436E+08, -5.278867484168112E+05,
2460896.500000000, A.D. 2025-Aug-09 00:00:00.0000, 1.777612096886329E+08, -3.624801474251104E+08, -6.816428619526327E+04,
2460903.500000000, A.D. 2025-Aug-16 00:00:00.0000, 1.873381073417869E+08, -3.584215027343140E+08, 3.916093356613964E+05,
2460910.500000000, A.D. 2025-Aug-23 00:00:00.0000, 1.967775253361352E+08, -3.540998787013007E+08, 8.510962412808537E+05,
2460917.500000000, A.D. 2025-Aug-30 00:00:00.0000, 2.060732602416309E+08, -3.495197487738646E+08, 1.309961969704315E+06,
2460924.500000000, A.D. 2025-Sep-06 00:00:00.0000, 2.152192450812083E+08, -3.446856747807350E+08, 1.767875572736576E+06,
2460931.500000000, A.D. 2025-Sep-13 00:00:00.0000, 2.242095451683312E+08, -3.396023031527957E+08, 2.224509856450483E+06,
2460938.500000000, A.D. 2025-Sep-20 00:00:00.0000, 2.330383548473318E+08, -3.342743639291858E+08, 2.679541332321599E+06,
2460945.500000000, A.D. 2025-Sep-27 00:00:00.0000, 2.416999962043145E+08, -3.287066694265172E+08, 3.132650035880566E+06,
2460952.500000000, A.D. 2025-Oct-04 00:00:00.0000, 2.501889177405018E+08, -3.229041120233369E+08, 3.583519442686379E+06,
2460959.500000000, A.D. 2025-Oct-11 00:00:00.0000, 2.584996926418521E+08, -3.168716619940318E+08, 4.031836439472616E+06,
2460966.500000000, A.D. 2025-Oct-18 00:00:00.0000, 2.666270169355683E+08, -3.106143656576207E+08, 4.477291302540511E+06,
2460973.500000000, A.D. 2025-Oct-25 00:00:00.0000, 2.745657076795726E+08, -3.041373438216925E+08, 4.919577671924129E+06,
2460980.500000000, A.D. 2025-Nov-01 00:00:00.0000, 2.823107012302305E+08, -2.974457904974889E+08, 5.358392519284144E+06,
2460987.500000000, A.D. 2025-Nov-08 00:00:00.0000, 2.898570516278429E+08, -2.905449719087504E+08, 5.793436103921965E+06,
2460994.500000000, A.D. 2025-Nov-15 00:00:00.0000, 2.971999292525572E+08, -2.834402258433707E+08, 6.224411898539096E+06,
2461001.500000000, A.D. 2025-Nov-22 00:00:00.0000, 3.043346201593868E+08, -2.761369611185678E+08, 6.651026465887457E+06,
2461008.500000000, A.D. 2025-Nov-29 00:00:00.0000, 3.112565259460911E+08, -2.686406560176744E+08, 7.072989393521637E+06,
2461015.500000000, A.D. 2025-Dec-06 00:00:00.0000, 3.179611618818375E+08, -2.609568558291981E+08, 7.490013484813496E+06,
2461022.500000000, A.D. 2025-Dec-13 00:00:00.0000, 3.244441537330165E+08, -2.530911728510867E+08, 7.901814891009420E+06,
2461029.500000000, A.D. 2025-Dec-20 00:00:00.0000, 3.307012367827262E+08, -2.450492878277172E+08, 8.308112947473466E+06,
2461036.500000000, A.D. 2025-Dec-27 00:00:00.0000, 3.367282559755723E+08, -2.368369502203740E+08, 8.708630024646655E+06,
2461043.500000000, A.D. 2026-Jan-03 00:00:00.0000, 3.425211657341180E+08, -2.284599779201047E+08, 9.103091477702290E+06,
2461050.500000000, A.D. 2026-Jan-10 00:00:00.0000, 3.480760295618092E+08, -2.199242570752031E+08, 9.491225629825950E+06,
2461057.500000000, A.D. 2026-Jan-17 00:00:00.0000, 3.533890196697779E+08, -2.112357421182999E+08, 9.872763760831818E+06,
2461064.500000000, A.D. 2026-Jan-24 00:00:00.0000, 3.584564167098825E+08, -2.024004559642186E+08, 1.024744009638550E+07,
2461071.500000000, A.D. 2026-Jan-31 00:00:00.0000, 3.632746096406358E+08, -1.934244903801253E+08, 1.061499179555009E+07,
2461078.500000000, A.D. 2026-Feb-07 00:00:00.0000, 3.678400957886028E+08, -1.843140065787646E+08, 1.097515892648285E+07,
2461085.500000000, A.D. 2026-Feb-14 00:00:00.0000, 3.721494813578058E+08, -1.750752360409827E+08, 1.132768440554604E+07,
2461092.500000000, A.D. 2026-Feb-21 00:00:00.0000, 3.761994827763447E+08, -1.657144809786129E+08, 1.167231391123529E+07,
2461099.500000000, A.D. 2026-Feb-28 00:00:00.0000, 3.799869278026837E+08, -1.562381132738073E+08, 1.200879596723157E+07,
2461106.500000000, A.D. 2026-Mar-07 00:00:00.0000, 3.835087543421664E+08, -1.466525738389374E+08, 1.233688222492656E+07,
2461113.500000000, A.D. 2026-Mar-14 00:00:00.0000, 3.867620097551287E+08, -1.369643747247570E+08, 1.265632750074009E+07,
2461120.500000000, A.D. 2026-Mar-21 00:00:00.0000, 3.897438524441081E+08, -1.271801010725220E+08, 1.296688964206802E+07,
2461127.500000000, A.D. 2026-Mar-28 00:00:00.0000, 3.924515537159437E+08, -1.173064118754535E+08, 1.326832949092263E+07,
2461134.500000000, A.D. 2026-Apr-04 00:00:00.0000, 3.948824993194432E+08, -1.073500405090296E+08, 1.356041092229642E+07,
2461141.500000000, A.D. 2026-Apr-11 00:00:00.0000, 3.970341909362718E+08, -9.731779538279051E+07, 1.384290090315687E+07,
2461148.500000000, A.D. 2026-Apr-18 00:00:00.0000, 3.989042477882918E+08, -8.721656071216263E+07, 1.411556955735050E+07,
2461155.500000000, A.D. 2026-Apr-25 00:00:00.0000, 4.004904084117438E+08, -7.705329738690025E+07, 1.437819023390820E+07,
2461162.500000000, A.D. 2026-May-02 00:00:00.0000, 4.017905326341069E+08, -6.683504395693995E+07, 1.463053957405770E+07,
2461169.500000000, A.D. 2026-May-09 00:00:00.0000, 4.028026038832506E+08, -5.656891779323295E+07, 1.487239756056422E+07,
2461176.500000000, A.D. 2026-May-16 00:00:00.0000, 4.035247322103269E+08, -4.626211627595001E+07, 1.510354752622655E+07,
2461183.500000000, A.D. 2026-May-23 00:00:00.0000, 4.039551580814620E+08, -3.592191697591652E+07, 1.532377620056954E+07,
2461190.500000000, A.D. 2026-May-30 00:00:00.0000, 4.040922548672765E+08, -2.555567649740411E+07, 1.553287401240212E+07,
2461197.500000000, A.D. 2026-Jun-06 00:00:00.0000, 4.039345297211628E+08, -1.517083124677849E+07, 1.573063541055161E+07,
2461204.500000000, A.D. 2026-Jun-13 00:00:00.0000, 4.034806265151167E+08, -4.774899918142185E+06, 1.591685888265259E+07,
2461211.500000000, A.D. 2026-Jun-20 00:00:00.0000, 4.027293303344564E+08, 5.624515243397417E+06, 1.609134695702730E+07,
2461218.500000000, A.D. 2026-Jun-27 00:00:00.0000, 4.016795718376857E+08, 1.601972807476521E+07, 1.625390631592961E+07,
2461225.500000000, A.D. 2026-Jul-04 00:00:00.0000, 4.003304314861670E+08, 2.640296826320053E+07, 1.640434795708808E+07,
2461232.500000000, A.D. 2026-Jul-11 00:00:00.0000, 3.986811439017060E+08, 3.676638113241060E+07, 1.654248736967338E+07,
2461239.500000000, A.D. 2026-Jul-18 00:00:00.0000, 3.967311024484774E+08, 4.710202748783247E+07, 1.666814471848660E+07,
2461246.500000000, A.D. 2026-Jul-25 00:00:00.0000, 3.944798640671964E+08, 5.740188354026175E+07, 1.678114503460969E+07,
2461253.500000000, A.D. 2026-Aug-01 00:00:00.0000, 3.919271544130366E+08, 6.765784087720650E+07, 1.688131840451514E+07,
2461260.500000000, A.D. 2026-Aug-08 00:00:00.0000, 3.890728735152482E+08, 7.786170646393155E+07, 1.696850013531524E+07,
2461267.500000000, A.D. 2026-Aug-15 00:00:00.0000, 3.859171023741075E+08, 8.800520314255674E+07, 1.704253089489736E+07,
2461274.500000000, A.D. 2026-Aug-22 00:00:00.0000, 3.824601097316351E+08, 9.807997187171033E+07, 1.710325699662361E+07,
2461281.500000000, A.D. 2026-Aug-29 00:00:00.0000, 3.787023567287576E+08, 1.080775743592806E+08, 1.715053092746218E+07,
2461288.500000000, A.D. 2026-Sep-05 00:00:00.0000, 3.746445015869623E+08, 1.179894932425765E+08, 1.718421169037306E+07,
$$EOE